H1 CPF  1  DLR 2021 04 25 10  6152 technosat            
H2  1704205 6203    42829 2021 04 25 00 00 00 2021 05 02 00 00 00    60 1 1  0 0 0
H9
10 0 59329  57600.000000  0       -485671.489       1544561.013       6780433.821
10 0 59329  57660.000000  0       -343342.266       1967266.597       6679572.823
10 0 59329  57720.000000  0       -195915.913       2380454.377       6550496.938
10 0 59329  57780.000000  0        -44101.753       2782350.600       6393752.753
10 0 59329  57840.000000  0        111357.289       3171234.969       6210002.726
10 0 59329  57900.000000  0        269688.215       3545448.019       6000022.507
10 0 59329  57960.000000  0        430091.696       3903398.208       5764697.808
10 0 59329  58020.000000  0        591745.997       4243568.706       5505020.834
10 0 59329  58080.000000  0        753811.064       4564523.905       5222086.333
10 0 59329  58140.000000  0        915432.783       4864915.637       4917087.148
10 0 59329  58200.000000  0       1075747.327       5143488.982       4591309.291
10 0 59329  58260.000000  0       1233885.560       5399087.591       4246126.689
10 0 59329  58320.000000  0       1388977.504       5630658.627       3882995.633
10 0 59329  58380.000000  0       1540156.996       5837257.412       3503448.998
10 0 59329  58440.000000  0       1686566.570       6018051.762       3109089.724
10 0 59329  58500.000000  0       1827362.016       6172325.394       2701583.808
10 0 59329  58560.000000  0       1961716.875       6299480.934       2282653.404
10 0 59329  58620.000000  0       2088827.107       6399042.500       1854069.504
10 0 59329  58680.000000  0       2207915.625       6470657.587       1417644.278
10 0 59329  58740.000000  0       2318236.678       6514098.313        975223.304
10 0 59329  58800.000000  0       2419080.107       6529262.139        528677.671
10 0 59329  58860.000000  0       2509775.461       6516172.021         79895.955
10 0 59329  58920.000000  0       2589695.940       6474975.983       -369223.903
10 0 59329  58980.000000  0       2658262.140       6405946.084       -816782.779
10 0 59329  59040.000000  0       2714945.589       6309476.797      -1260888.540
10 0 59329  59100.000000  0       2759272.035       6186082.806      -1699664.167
10 0 59329  59160.000000  0       2790824.453       6036396.270      -2131255.824
10 0 59329  59220.000000  0       2809245.798       5861163.534      -2553840.818
10 0 59329  59280.000000  0       2814241.445       5661241.293      -2965635.421
10 0 59329  59340.000000  0       2805581.309       5437592.215      -3364902.483
10 0 59329  59400.000000  0       2783101.622       5191280.077      -3749958.768
10 0 59329  59460.000000  0       2746706.375       4923464.517      -4119181.990
10 0 59329  59520.000000  0       2696368.425       4635395.395      -4471017.583
10 0 59329  59580.000000  0       2632130.247       4328406.743      -4803985.139
10 0 59329  59640.000000  0       2554104.353       4003910.410      -5116684.446
10 0 59329  59700.000000  0       2462473.396       3663389.466      -5407801.196
10 0 59329  59760.000000  0       2357489.927       3308391.287      -5676112.353
10 0 59329  59820.000000  0       2239475.795       2940520.398      -5920491.067
10 0 59329  59880.000000  0       2108821.193       2561431.141      -6139911.176
10 0 59329  59940.000000  0       1965983.382       2172820.180      -6333451.231
10 0 59329  60000.000000  0       1811485.125       1776418.946      -6500298.093
10 0 59329  60060.000000  0       1645912.842       1373985.988      -6639750.147
10 0 59329  60120.000000  0       1469914.429        967299.233      -6751220.091
10 0 59329  60180.000000  0       1284196.739        558148.247      -6834237.272
10 0 59329  60240.000000  0       1089522.755        148326.469      -6888449.593
10 0 59329  60300.000000  0        886708.484       -260376.581      -6913624.925
10 0 59329  60360.000000  0        676619.593       -666183.004      -6909652.002
10 0 59329  60420.000000  0        460167.803      -1067334.078      -6876540.912
10 0 59329  60480.000000  0        238307.050      -1462097.746      -6814423.141
10 0 59329  60540.000000  0         12029.418      -1848775.907      -6723551.203
10 0 59329  60600.000000  0       -217639.196      -2225711.659      -6604297.924
10 0 59329  60660.000000  0       -449643.683      -2591296.446      -6457155.169
10 0 59329  60720.000000  0       -682904.475      -2943976.982      -6282731.999
10 0 59329  60780.000000  0       -916322.444      -3282261.846      -6081752.391
10 0 59329  60840.000000  0      -1148783.974      -3604727.859      -5855052.587
10 0 59329  60900.000000  0      -1379166.199      -3910026.221      -5603577.964
10 0 59329  60960.000000  0      -1606342.363      -4196888.367      -5328379.456
10 0 59329  61020.000000  0      -1829187.303      -4464131.528      -5030609.478
10 0 59329  61080.000000  0      -2046583.011      -4710663.904      -4711517.370
10 0 59329  61140.000000  0      -2257424.262      -4935489.441      -4372444.389
10 0 59329  61200.000000  0      -2460624.231      -5137712.168      -4014818.256
10 0 59329  61260.000000  0      -2655120.106      -5316540.091      -3640147.309
10 0 59329  61320.000000  0      -2839878.646      -5471288.633      -3250014.256
10 0 59329  61380.000000  0      -3013901.679      -5601383.588      -2846069.558
10 0 59329  61440.000000  0      -3176231.504      -5706363.568      -2430024.451
10 0 59329  61500.000000  0      -3325956.164      -5785881.923      -2003643.637
10 0 59329  61560.000000  0      -3462214.542      -5839708.108      -1568737.650
10 0 59329  61620.000000  0      -3584201.236      -5867728.462      -1127154.962
10 0 59329  61680.000000  0      -3691171.176      -5869946.408       -680773.860
10 0 59329  61740.000000  0      -3782443.949      -5846482.045       -231494.168
10 0 59329  61800.000000  0      -3857407.841      -5797571.183        218771.137
10 0 59329  61860.000000  0      -3915523.542      -5723563.799        668104.414
10 0 59329  61920.000000  0      -3956327.499      -5624921.904       1114591.883
10 0 59329  61980.000000  0      -3979434.886      -5502216.845       1556332.146
10 0 59329  62040.000000  0      -3984542.154      -5356126.031       1991444.619
10 0 59329  62100.000000  0      -3971429.160      -5187429.162       2418077.812
10 0 59329  62160.000000  0      -3939960.904      -4997003.988       2834417.454
10 0 59329  62220.000000  0      -3890088.826      -4785821.620       3238694.431
10 0 59329  62280.000000  0      -3821851.653      -4554941.399       3629192.491
10 0 59329  62340.000000  0      -3735375.814      -4305505.369       4004255.660
10 0 59329  62400.000000  0      -3630875.399      -4038732.366       4362295.358
10 0 59329  62460.000000  0      -3508651.671      -3755911.773       4701797.112
10 0 59329  62520.000000  0      -3369092.182      -3458397.035       5021326.864
10 0 59329  62580.000000  0      -3212669.463      -3147598.966       5319536.932
10 0 59329  62640.000000  0      -3039939.279      -2824978.835       5595171.527
10 0 59329  62700.000000  0      -2851538.505      -2492041.351       5847071.833
10 0 59329  62760.000000  0      -2648182.625      -2150327.512       6074180.680
10 0 59329  62820.000000  0      -2430662.878      -1801407.350       6275546.776
10 0 59329  62880.000000  0      -2199843.041      -1446872.612       6450328.516
10 0 59329  62940.000000  0      -1956655.778      -1088329.333       6597797.265
10 0 59329  63000.000000  0      -1702098.694       -727390.470       6717340.014
10 0 59329  63060.000000  0      -1437230.142       -365668.684       6808461.515
10 0 59329  63120.000000  0      -1163164.853         -4769.277       6870786.088
10 0 59329  63180.000000  0       -881069.242        353716.872       6904059.046
10 0 59329  63240.000000  0       -592156.429        708220.281       6908147.587
10 0 59329  63300.000000  0       -297681.027       1057199.667       6883041.195
10 0 59329  63360.000000  0          1066.274       1399148.572       6828851.585
10 0 59329  63420.000000  0        302764.340       1732601.819       6745812.181
10 0 59329  63480.000000  0        606067.415       2056141.732       6634277.048
10 0 59329  63540.000000  0        909611.041       2368404.045       6494719.394
10 0 59329  63600.000000  0       1212018.130       2668083.587       6327729.665
10 0 59329  63660.000000  0       1511905.128       2953939.706       6134013.186
10 0 59329  63720.000000  0       1807888.276       3224801.420       5914387.353
10 0 59329  63780.000000  0       2098589.945       3479572.262       5669778.370
10 0 59329  63840.000000  0       2382645.033       3717234.783       5401217.556
10 0 59329  63900.000000  0       2658707.420       3936854.727       5109837.155
10 0 59329  63960.000000  0       2925456.353       4137584.749       4796865.656
10 0 59329  64020.000000  0       3181602.699       4318667.706       4463622.780
10 0 59329  64080.000000  0       3425895.152       4479439.621       4111514.145
10 0 59329  64140.000000  0       3657126.336       4619332.218       3742025.553
10 0 59329  64200.000000  0       3874138.922       4737875.181       3356716.968
10 0 59329  64260.000000  0       4075831.705       4834697.858       2957215.805
10 0 59329  64320.000000  0       4261165.093       4909530.261       2545209.882
10 0 59329  64380.000000  0       4429166.281       4962203.742       2122440.372
10 0 59329  64440.000000  0       4578934.347       4992651.230       1690694.489
10 0 59329  64500.000000  0       4709645.139       5000907.027       1251797.955
10 0 59329  64560.000000  0       4820555.838       4987106.113        807607.068
10 0 59329  64620.000000  0       4911009.001       4951482.873        360000.607
10 0 59329  64680.000000  0       4980436.165       4894369.293        -89128.289
10 0 59329  64740.000000  0       5028361.077       4816192.743       -537880.248
99
